COMMENT,ORIGINATOR,NORAD_CAT_ID,OBJECT_NAME,OBJECT_TYPE,CLASSIFICATION_TYPE,INTLDES,EPOCH,EPOCH_MICROSECONDS,MEAN_MOTION,ECCENTRICITY,INCLINATION,RA_OF_ASC_NODE,ARG_OF_PERICENTER,MEAN_ANOMALY,EPHEMERIS_TYPE,ELEMENT_SET_NO,REV_AT_EPOCH,BSTAR,MEAN_MOTION_DOT,MEAN_MOTION_DDOT,FILE,TLE_LINE0,TLE_LINE1,TLE_LINE2,OBJECT_ID,OBJECT_NUMBER,SEMIMAJOR_AXIS,PERIOD,APOGEE,PERIGEE
GENERATED VIA SPACETRACK.ORG API,18 SPCS,41616,FLOCK 2P 5,PAYLOAD,U,16040T,3/7/2019 11:43,114688,15.25105558,0.0011115,97.3855,133.314,43.1897,317.0211,0,999,15034,5.84E-05,1.39E-05,0,2421119,0 FLOCK 2P 5,1 41616U 16040T   19066.48884392  .00001391  00000-0  58378-4 0  9996,2 41616  97.3855 133.3140 0011115  43.1897 317.0211 15.25105558150348,2016-040T,41616,6868.605,94.419,498.104,482.836
GENERATED VIA SPACETRACK.ORG API,18 SPCS,41616,FLOCK 2P 5,PAYLOAD,U,16040T,3/8/2019 19:13,357280,15.25108289,0.0011002,97.3853,134.6088,38.9783,321.2246,0,999,15054,5.21E-05,1.23E-05,0,2421816,0 FLOCK 2P 5,1 41616U 16040T   19067.80106895  .00001234  00000-0  52089-4 0  9997,2 41616  97.3853 134.6088 0011002  38.9783 321.2246 15.25108289150543,2016-040T,41616,6868.597,94.419,498.019,482.905
GENERATED VIA SPACETRACK.ORG API,18 SPCS,41616,FLOCK 2P 5,PAYLOAD,U,16040T,3/9/2019 10:58,398656,15.25110112,0.0010949,97.3852,135.2561,36.8477,323.3511,0,999,15064,5.36E-05,1.27E-05,0,2422345,0 FLOCK 2P 5,1 41616U 16040T   19068.45718054 +.00001271 +00000-0 +53589-4 0  9992,2 41616 097.3852 135.2561 0010949 036.8477 323.3511 15.25110112150648,2016-040T,41616,6868.591,94.419,497.977,482.936
GENERATED VIA SPACETRACK.ORG API,18 SPCS,41616,FLOCK 2P 5,PAYLOAD,U,16040T,3/9/2019 20:25,128096,15.25111737,0.0010906,97.3851,135.6446,35.4379,324.7582,0,999,15070,5.66E-05,1.35E-05,0,2422694,0 FLOCK 2P 5,1 41616U 16040T   19068.85084639 +.00001347 +00000-0 +56601-4 0  9993,2 41616 097.3851 135.6446 0010906 035.4379 324.7582 15.25111737150706,2016-040T,41616,6868.586,94.419,497.942,482.961
GENERATED VIA SPACETRACK.ORG API,18 SPCS,41616,FLOCK 2P 5,PAYLOAD,U,16040T,3/10/2019 4:17,78368,15.25112589,0.0010872,97.385,135.9683,34.3353,325.8585,0,999,15075,5.59E-05,1.33E-05,0,2422491,0 FLOCK 2P 5,1 41616U 16040T   19069.17890137  .00001330  00000-0  55943-4 0  9997,2 41616  97.3850 135.9683 0010872  34.3353 325.8585 15.25112589150759,2016-040T,41616,6868.584,94.419,497.916,482.981
GENERATED VIA SPACETRACK.ORG API,18 SPCS,41616,FLOCK 2P 5,PAYLOAD,U,16040T,3/10/2019 20:02,963360,15.25114886,0.0010797,97.3849,136.6156,32.2487,327.9409,0,999,15085,6.04E-05,1.44E-05,0,2422861,0 FLOCK 2P 5,1 41616U 16040T   19069.83501115 +.00001443 +00000-0 +60413-4 0  9998,2 41616 097.3849 136.6156 0010797 032.2487 327.9409 15.25114886150852,2016-040T,41616,6868.577,94.419,497.858,483.026
GENERATED VIA SPACETRACK.ORG API,18 SPCS,41616,FLOCK 2P 5,PAYLOAD,U,16040T,3/11/2019 10:12,22528,15.25114606,0.0010721,97.3849,137.1981,30.3671,329.8186,0,999,15094,4.73E-05,1.11E-05,0,2423148,0 FLOCK 2P 5,1 41616U 16040T   19070.42550952  .00001114  00000-0  47296-4 0  9997,2 41616  97.3849 137.1981 0010721  30.3671 329.8186 15.25114606150948,2016-040T,41616,6868.578,94.419,497.807,483.079
GENERATED VIA SPACETRACK.ORG API,18 SPCS,41616,FLOCK 2P 5,PAYLOAD,U,16040T,3/11/2019 19:39,713952,15.25115231,0.0010686,97.3848,137.5865,29.1052,331.0779,0,999,15100,4.52E-05,1.06E-05,0,2423683,0 FLOCK 2P 5,1 41616U 16040T   19070.81917493 +.00001061 +00000-0 +45186-4 0  9994,2 41616 097.3848 137.5865 0010686 029.1052 331.0779 15.25115231151007,2016-040T,41616,6868.576,94.419,497.781,483.101
GENERATED VIA SPACETRACK.ORG API,18 SPCS,41616,FLOCK 2P 5,PAYLOAD,U,16040T,3/12/2019 11:24,502176,15.25116218,0.0010615,97.3847,138.2338,27.0035,333.1754,0,999,15110,4.18E-05,9.76E-06,0,2423634,0 FLOCK 2P 5,1 41616U 16040T   19071.47528359  .00000976  00000-0  41809-4 0  9998,2 41616  97.3847 138.2338 0010615  27.0035 333.1754 15.25116218151102,2016-040T,41616,6868.573,94.419,497.729,483.147
GENERATED VIA SPACETRACK.ORG API,18 SPCS,41616,FLOCK 2P 5,PAYLOAD,U,16040T,3/12/2019 19:16,368640,15.25116866,0.0010578,97.3846,138.5575,25.9469,334.2298,0,999,15115,4.12E-05,9.60E-06,0,2423818,0 FLOCK 2P 5,1 41616U 16040T   19071.80333760 +.00000960 +00000-0 +41173-4 0  9992,2 41616 097.3846 138.5575 0010578 025.9469 334.2298 15.25116866151152,2016-040T,41616,6868.571,94.418,497.702,483.17
GENERATED VIA SPACETRACK.ORG API,18 SPCS,41616,FLOCK 2P 5,PAYLOAD,U,16040T,3/13/2019 20:28,583904,15.25120476,0.0010483,97.3845,139.5932,22.4443,337.7252,0,999,15131,4.90E-05,1.16E-05,0,2424289,0 FLOCK 2P 5,1 41616U 16040T   19072.85310861  .00001157  00000-0  49014-4 0  9996,2 41616  97.3845 139.5932 0010483  22.4443 337.7252 15.25120476151316,2016-040T,41616,6868.56,94.418,497.626,483.225
GENERATED VIA SPACETRACK.ORG API,18 SPCS,41616,FLOCK 2P 5,PAYLOAD,U,16040T,3/13/2019 22:02,299136,15.25121253,0.0010489,97.3844,139.6579,22.1212,338.0477,0,999,15132,5.24E-05,1.24E-05,0,2424442,0 FLOCK 2P 5,1 41616U 16040T   19072.91871874 +.00001242 +00000-0 +52400-4 0  9997,2 41616 097.3844 139.6579 0010489 022.1212 338.0477 15.25121253151328,2016-040T,41616,6868.558,94.418,497.627,483.218
GENERATED VIA SPACETRACK.ORG API,18 SPCS,41616,FLOCK 2P 5,PAYLOAD,U,16040T,3/14/2019 20:05,810912,15.25124029,0.0010397,97.3843,140.5642,19.0517,341.1108,0,999,15146,5.50E-05,1.31E-05,0,2425243,0 FLOCK 2P 5,1 41616U 16040T   19073.83726633 +.00001306 +00000-0 +54975-4 0  9991,2 41616 097.3843 140.5642 0010397 019.0517 341.1108 15.25124029151465,2016-040T,41616,6868.55,94.418,497.556,483.273
GENERATED VIA SPACETRACK.ORG API,18 SPCS,41616,FLOCK 2P 5,PAYLOAD,U,16040T,3/15/2019 3:58,536544,15.25124861,0.0010363,97.3842,140.8878,17.9479,342.2122,0,999,15151,5.47E-05,1.30E-05,0,2425336,0 FLOCK 2P 5,1 41616U 16040T   19074.16531871  .00001298  00000-0  54653-4 0  9999,2 41616  97.3842 140.8878 0010363  17.9479 342.2122 15.25124861151513,2016-040T,41616,6868.547,94.418,497.53,483.294
GENERATED VIA SPACETRACK.ORG API,18 SPCS,41616,FLOCK 2P 5,PAYLOAD,U,16040T,3/15/2019 19:42,983488,15.25126322,0.0010289,97.3841,141.5351,15.6615,344.4939,0,999,15161,5.42E-05,1.29E-05,0,2426008,0 FLOCK 2P 5,1 41616U 16040T   19074.82142342 +.00001288 +00000-0 +54239-4 0  9992,2 41616 097.3841 141.5351 0010289 015.6615 344.4939 15.25126322151615,2016-040T,41616,6868.543,94.418,497.475,483.341
GENERATED VIA SPACETRACK.ORG API,18 SPCS,41616,FLOCK 2P 5,PAYLOAD,U,16040T,3/16/2019 8:18,860000,15.25127763,0.0010228,97.3841,142.053,13.9039,346.2479,0,999,15169,5.48E-05,1.30E-05,0,2426324,0 FLOCK 2P 5,1 41616U 16040T   19075.34630625  .00001303  00000-0  54814-4 0  9993,2 41616  97.3841 142.0530 0010228  13.9039 346.2479 15.25127763151691,2016-040T,41616,6868.538,94.418,497.428,483.378
GENERATED VIA SPACETRACK.ORG API,18 SPCS,41616,FLOCK 2P 5,PAYLOAD,U,16040T,3/16/2019 19:20,870944,15.25130193,0.0010181,97.384,142.506,12.327,347.8215,0,999,15176,6.12E-05,1.46E-05,0,2426563,0 FLOCK 2P 5,1 41616U 16040T   19075.80557721 +.00001462 +00000-0 +61160-4 0  9997,2 41616 097.3840 142.5060 0010181 012.3270 347.8215 15.25130193151765,2016-040T,41616,6868.531,94.418,497.389,483.403
GENERATED VIA SPACETRACK.ORG API,18 SPCS,41616,FLOCK 2P 5,PAYLOAD,U,16040T,3/17/2019 11:04,983520,15.25133625,0.0010111,97.3838,143.1533,10.0326,350.1112,0,999,15186,7.00E-05,1.68E-05,0,2426898,0 FLOCK 2P 5,1 41616U 16040T   19076.46167805  .00001683  00000-0  69988-4 0  9991,2 41616  97.3838 143.1533 0010111  10.0326 350.1112 15.25133625151861,2016-040T,41616,6868.521,94.417,497.33,483.441
GENERATED VIA SPACETRACK.ORG API,18 SPCS,41616,FLOCK 2P 5,PAYLOAD,U,16040T,3/17/2019 20:31,276640,15.25134296,0.001007,97.3837,143.5417,8.6214,351.5195,0,999,15192,6.63E-05,1.59E-05,0,2427168,0 FLOCK 2P 5,1 41616U 16040T   19076.85533885 +.00001592 +00000-0 +66349-4 0  9996,2 41616 097.3837 143.5417 0010070 008.6214 351.5195 15.25134296151926,2016-040T,41616,6868.519,94.417,497.3,483.467
GENERATED VIA SPACETRACK.ORG API,18 SPCS,41616,FLOCK 2P 5,PAYLOAD,U,16040T,3/18/2019 10:41,659296,15.25135879,0.001,97.3836,144.1242,6.4577,353.6788,0,999,15201,6.49E-05,1.56E-05,0,2427675,0 FLOCK 2P 5,1 41616U 16040T   19077.44582939 +.00001555 +00000-0 +64866-4 0  9997,2 41616 097.3836 144.1242 0010000 006.4577 353.6788 15.25135879152019,2016-040T,41616,6868.514,94.417,497.247,483.51
GENERATED VIA SPACETRACK.ORG API,18 SPCS,41616,FLOCK 2P 5,PAYLOAD,U,16040T,3/18/2019 20:08,836640,15.25137367,0.0009957,97.3836,144.5125,5.0622,355.0714,0,999,15207,6.58E-05,1.58E-05,0,2427659,0 FLOCK 2P 5,1 41616U 16040T   19077.83948885  .00001577  00000-0  65767-4 0  9991,2 41616  97.3836 144.5125 0009957   5.0622 355.0714 15.25137367152073,2016-040T,41616,6868.509,94.417,497.213,483.536
GENERATED VIA SPACETRACK.ORG API,18 SPCS,41616,FLOCK 2P 5,PAYLOAD,U,16040T,3/18/2019 21:43,533728,15.25137474,0.0009945,97.3836,144.5772,4.8082,355.3249,0,999,15208,6.50E-05,1.56E-05,0,2427718,0 FLOCK 2P 5,1 41616U 16040T   19077.90509877 +.00001559 +00000-0 +65037-4 0  9993,2 41616 097.3836 144.5772 0009945 004.8082 355.3249 15.25137474152081,2016-040T,41616,6868.509,94.417,497.205,483.543
GENERATED VIA SPACETRACK.ORG API,18 SPCS,41616,FLOCK 2P 5,PAYLOAD,U,16040T,3/19/2019 11:53,829120,15.25138368,0.0009886,97.3835,145.1597,2.6739,357.455,0,999,15217,5.89E-05,1.40E-05,0,2427839,0 FLOCK 2P 5,1 41616U 16040T   19078.49558830 +.00001404 +00000-0 +58851-4 0  9996,2 41616 097.3835 145.1597 0009886 002.6739 357.4550 15.25138368152172,2016-040T,41616,6868.506,94.417,497.162,483.581
GENERATED VIA SPACETRACK.ORG API,18 SPCS,41616,FLOCK 2P 5,PAYLOAD,U,16040T,3/19/2019 15:02,211200,15.25138722,0.0009874,97.3835,145.2892,2.21,357.918,0,999,15219,5.83E-05,1.39E-05,0,2427902,0 FLOCK 2P 5,1 41616U 16040T   19078.62680800 +.00001391 +00000-0 +58317-4 0  9996,2 41616 097.3835 145.2892 0009874 002.2100 357.9180 15.25138722152196,2016-040T,41616,6868.505,94.417,497.152,483.588
